STARLINK-30227          
1 57505U 23113L   26068.22529593  .00032605  00000+0  15711-2 0  9993
2 57505  43.0053   4.8681 0002789 225.8359 134.2260 15.18160462143769
MBZ-SAT                 
1 62626U 25009T   26068.71170241 -.00000059  00000+0  33147-6 0  9991
2 62626  97.4030 149.1701 0002163 323.4829  36.6257 15.18507845 63599
